ONEWEB-0171             
1 48070U 21025AE  26027.39444108  .00000025  00000+0  34751-4 0  9999
2 48070  87.9007 348.2174 0001636  82.8157 277.3158 13.13470946235133
ONEWEB-0172             
1 48071U 21025AF  26027.60266487 -.00000193  00000+0 -56416-3 0  9995
2 48071  87.9018 348.1629 0001643  85.4443 274.6874 13.13470362236054
ONEWEB-0174             
1 48072U 21025AG  26027.58403969  .00000115  00000+0  28061-3 0  9998
2 48072  87.9017 348.1679 0001914  83.6404 276.4943 13.13469218235376
ONEWEB-0175             
1 48073U 21025AH  26027.61451765 -.00000226  00000+0 -65431-3 0  9997
2 48073  87.9024 348.1339 0001474  81.1823 278.9473 13.13470747235034
ONEWEB-0177             
1 48074U 21025AJ  26027.62636668  .00000108  00000+0  26110-3 0  9994
2 48074  87.9025 348.1520 0001898  87.9846 272.1501 13.13470561235220
ONEWEB-0178             
1 48075U 21025AK  26027.41660509  .00000328  00000+0  86212-3 0  9996
2 48075  87.9005 348.2288 0001628  88.4502 271.6814 13.13471057235241
ONEWEB-0108             
1 48076U 21025AL  26027.37581465 -.00000247  00000+0 -71044-3 0  9994
2 48076  87.9024 348.1904 0001979  77.4521 282.6829 13.13469582235164
ONEWEB-0169             
1 48077U 21025AM  26027.33181725  .00000354  00000+0  93535-3 0  9992
2 48077  87.9024 348.2173 0001901  80.6108 279.5236 13.13470464233814
